NORAD_CAT_ID,OBJECT_NAME,OBJECT_TYPE,EPOCH,MEAN_MOTION,ECCENTRICITY,INCLINATION,RA_OF_ASC_NODE,ARG_OF_PERICENTER,MEAN_ANOMALY,BSTAR,MEAN_MOTION_DOT,MEAN_MOTION_DDOT,TLE_LINE0,TLE_LINE1,TLE_LINE2,SEMIMAJOR_AXIS,PERIOD,APOGEE,PERIGEE,DECAYED
51728.0,STARLINK-3448,PAYLOAD,2022-06-10 00:00:00,15.08811409,0.0001703,53.2157,343.3934,50.9205,190.5689,0.002223,0.00035241,0.0,0 STARLINK-3448,1 51728U 22016Q   22161.00001157  .00035241  00000-0  22230-2 0  9996,2 51728  53.2157 343.3934 0001703  50.9205 190.5689 15.08811409 18070,6917.968000000003,95.439,541.011,538.655,0.0
51728.0,STARLINK-3448,PAYLOAD,2022-06-10 14:00:01,15.08849002,0.0001631999999999,53.2158,340.7728,59.3789,112.3734,-0.00067307,-0.00010987,0.0,0 STARLINK-3448,1 51728U 22016Q   22161.58334491 -.00010987  00000-0 -67307-3 0  9996,2 51728  53.2158 340.7728 0001632  59.3789 112.3734 15.08849002  1305,6917.853,95.437,540.847,538.589,0.0
51728.0,STARLINK-3448,PAYLOAD,2022-06-10 22:00:00,15.08820649,0.0001758,53.2156,339.2779,51.3904,131.9709,0.003199,0.00050966,0.0,0 STARLINK-3448,1 51728U 22016Q   22161.91667824  .00050966  00000-0  31990-2 0  9999,2 51728  53.2156 339.2779 0001758  51.3904 131.9709 15.08820649 18215,6917.94,95.439,541.021,538.5880000000002,0.0
51728.0,STARLINK-3448,PAYLOAD,2022-06-11 14:00:01,15.08859485,0.000177,53.2157,336.2834,59.8843,146.6774,-0.0023518,-0.00037543,0.0,0 STARLINK-3448,1 51728U 22016Q   22162.58334491 -.00037543  00000-0 -23518-2 0  9999,2 51728  53.2157 336.2834 0001770  59.8843 146.6774 15.08859485 18310,6917.821,95.436,540.91,538.461,0.0
51728.0,STARLINK-3448,PAYLOAD,2022-06-11 22:00:00,15.08814555,0.0001917,53.2156,334.7883,53.3617,164.8102,0.0034885,0.00055632,0.0,0 STARLINK-3448,1 51728U 22016Q   22162.91667824  .00055632  00000-0  34885-2 0  9991,2 51728  53.2156 334.7883 0001917  53.3617 164.8102 15.08814555  1304,6917.958000000001,95.439,541.149,538.497,0.0
51728.0,STARLINK-3448,PAYLOAD,2022-06-12 06:00:02,15.08838298,0.0001763,53.2157,333.2898,57.5925,172.2345,0.0011181,0.00017551,0.0,0 STARLINK-3448,1 51728U 22016Q   22163.25002315  .00017551  00000-0  11181-2 0  9999,2 51728  53.2157 333.2898 0001763  57.5925 172.2345 15.08838298 18414,6917.886,95.438,540.97,538.531,0.0
51728.0,STARLINK-3448,PAYLOAD,2022-06-12 14:00:01,15.08871474,0.0001786,53.2159,331.7938,58.8008,182.5571,-0.0037206,-0.00059068,0.0,0 STARLINK-3448,1 51728U 22016Q   22163.58334491 -.00059068  00000-0 -37206-2 0  9995,2 51728  53.2159 331.7938 0001786  58.8008 182.5571 15.08871474  1303,6917.784000000002,95.436,540.885,538.414,0.0
51728.0,STARLINK-3448,PAYLOAD,2022-06-12 22:00:00,15.08812843,0.0001866,53.2159,330.2986,50.9927,201.9824,0.0035189,0.0005612,0.0,0 STARLINK-3448,1 51728U 22016Q   22163.91667824  .00056120  00000-0  35189-2 0  9993,2 51728  53.2159 330.2986 0001866  50.9927 201.9824 15.08812843 18515,6917.9630000000025,95.439,541.119,538.538,0.0
51728.0,STARLINK-3448,PAYLOAD,2022-06-13 14:00:01,15.08876914,0.0001704,53.2164,327.3042,55.6504,220.517,-0.0038934,-0.00061783,0.0,0 STARLINK-3448,1 51728U 22016Q   22164.58334491 -.00061783  00000-0 -38934-2 0  9992,2 51728  53.2164 327.3042 0001704  55.6504 220.5170 15.08876914 18616,6917.768,95.435,540.811,538.4540000000002,0.0
51728.0,STARLINK-3448,PAYLOAD,2022-06-13 22:00:00,15.08834172,0.0001742,53.2163,325.8089,47.2697,240.5172,0.0010166,0.00015926,0.0,0 STARLINK-3448,1 51728U 22016Q   22164.91667824  .00015926  00000-0  10166-2 0  9991,2 51728  53.2163 325.8089 0001742  47.2697 240.5172 15.08834172  1303,6917.898,95.438,540.9680000000002,538.558,0.0
51728.0,STARLINK-3448,PAYLOAD,2022-06-14 06:00:00,15.08809218,0.0001523,53.2166,324.3105,51.5466,247.847,0.0025829,0.00041024,0.0,0 STARLINK-3448,1 51728U 22016Q   22165.25001157  .00041024  00000-0  25829-2 0  9990,2 51728  53.2166 324.3105 0001523  51.5466 247.8470 15.08809218 18715,6917.974,95.44,540.893,538.786,0.0
51728.0,STARLINK-3448,PAYLOAD,2022-06-14 14:00:01,15.08865979,0.0001525,53.2167,322.8148,49.8656,261.0974,-0.0033944,-0.00053944,0.0,0 STARLINK-3448,1 51728U 22016Q   22165.58334491 -.00053944  00000-0 -33944-2 0  9999,2 51728  53.2167 322.8148 0001525  49.8656 261.0974 15.08865979  1309,6917.801,95.436,540.721,538.611,0.0
51728.0,STARLINK-3448,PAYLOAD,2022-06-14 22:00:00,15.0879945,0.0001587,53.2164,321.3194,42.4527,280.106,0.0027482,0.00043672,0.0,0 STARLINK-3448,1 51728U 22016Q   22165.91667824  .00043672  00000-0  27482-2 0  9990,2 51728  53.2164 321.3194 0001587  42.4527 280.1060 15.08799450 18817,6918.004,95.44,540.967,538.771,0.0
51728.0,STARLINK-3448,PAYLOAD,2022-06-15 14:00:01,15.08850155,0.0001472,53.2169,318.3258,48.6736,297.0263,-0.0011401,-0.00018392,0.0,0 STARLINK-3448,1 51728U 22016Q   22166.58334491 -.00018392  00000-0 -11401-2 0  9992,2 51728  53.2169 318.3258 0001472  48.6736 297.0263 15.08850155 18915,6917.849,95.437,540.7330000000002,538.696,0.0
51728.0,STARLINK-3448,PAYLOAD,2022-06-15 22:00:00,15.08845709,0.00016,53.2163,316.8303,43.3145,313.9858,-0.00033605,-5.633e-05,0.0,0 STARLINK-3448,1 51728U 22016Q   22166.91667824 -.00005633  00000-0 -33605-3 0  9993,2 51728  53.2163 316.8303 0001600  43.3145 313.9858 15.08845709  1304,6917.863,95.437,540.835,538.621,0.0
51728.0,STARLINK-3448,PAYLOAD,2022-06-16 02:00:01,15.08860938,0.0001537,53.2164,316.0811,48.0161,135.0879,-0.0026876,-0.00042832,0.0,0 STARLINK-3448,1 51728U 22016Q   22167.08334491 -.00042832  00000-0 -26876-2 0  9996,2 51728  53.2164 316.0811 0001537  48.0161 135.0879 15.08860938  1307,6917.816,95.436,540.745,538.618,0.0
51728.0,STARLINK-3448,PAYLOAD,2022-06-19 14:00:01,15.08838599,0.0001704,53.2154,300.3704,49.1921,75.5925,-0.00082763,-0.00013435,0.0,0 STARLINK-3448,1 51728U 22016Q   22170.58334491 -.00013435  00000-0 -82763-3 0  9990,2 51728  53.2154 300.3704 0001704  49.1921  75.5925 15.08838599  1303,6917.885,95.438,540.928,538.571,0.0
51728.0,STARLINK-3448,PAYLOAD,2022-06-19 20:00:01,15.08827917,0.0001783,53.2153,299.2487,44.8551,358.6257,0.0020754,0.00032886,0.0,0 STARLINK-3448,1 51728U 22016Q   22170.83334491  .00032886  00000-0  20754-2 0  9998,2 51728  53.2153 299.2487 0001783  44.8551 358.6257 15.08827917 19566,6917.917,95.438,541.016,538.549,0.0
51728.0,STARLINK-3448,PAYLOAD,2022-06-19 22:00:00,15.08857625,0.0001796,53.2152,298.8741,45.4994,90.8718,-0.0017945999999999,-0.0002875,0.0,0 STARLINK-3448,1 51728U 22016Q   22170.91667824 -.00028750  00000-0 -17946-2 0  9992,2 51728  53.2152 298.8741 0001796  45.4994  90.8718 15.08857625  1304,6917.8269999999975,95.436,540.934,538.4490000000002,0.0
51728.0,STARLINK-3448,PAYLOAD,2022-06-20 06:00:00,15.08804865,0.0001682,53.2155,297.376,53.0214,94.9602,0.0032105,0.00051129,0.0,0 STARLINK-3448,1 51728U 22016Q   22171.25001157  .00051129  00000-0  32105-2 0  9999,2 51728  53.2155 297.3760 0001682  53.0214  94.9602 15.08804865 19625,6917.988,95.44,541.016,538.689,0.0
51728.0,STARLINK-3448,PAYLOAD,2022-06-20 12:00:00,15.08847721,0.0001618,53.2157,296.2549,47.3088,19.3134,-0.001288,-0.00020732,0.0,0 STARLINK-3448,1 51728U 22016Q   22171.50001157 -.00020732  00000-0 -12880-2 0  9993,2 51728  53.2157 296.2549 0001618  47.3088  19.3134 15.08847721 19667,6917.857,95.437,540.841,538.602,0.0
51728.0,STARLINK-3448,PAYLOAD,2022-06-20 14:00:01,15.0884077,0.0001678,53.2156,295.8812,45.3317,114.1919,-0.00068802,-0.00011222,0.0,0 STARLINK-3448,1 51728U 22016Q   22171.58334491 -.00011222  00000-0 -68802-3 0  9991,2 51728  53.2156 295.8812 0001678  45.3317 114.1919 15.08840770  1307,6917.878000000002,95.438,540.904,538.582,0.0
51728.0,STARLINK-3448,PAYLOAD,2022-06-20 22:00:00,15.08853628,0.0001725,53.2154,294.3848,42.35,128.7648,7.2229e-05,8.62e-06,0.0,0 STARLINK-3448,1 51728U 22016Q   22171.91667824  .00000862  00000-0  72229-4 0  9992,2 51728  53.2154 294.3848 0001725  42.3500 128.7648 15.08853628  1308,6917.839,95.437,540.8969999999998,538.51,0.0
51728.0,STARLINK-3448,PAYLOAD,2022-06-21 06:00:00,15.08850447,0.0001595,53.2157,292.8867,49.5428,133.1893,0.00026765,3.975e-05,0.0,0 STARLINK-3448,1 51728U 22016Q   22172.25001157  .00003975  00000-0  26765-3 0  9992,2 51728  53.2157 292.8867 0001595  49.5428 133.1893 15.08850447 19776,6917.848000000001,95.437,540.817,538.61,0.0
51728.0,STARLINK-3448,PAYLOAD,2022-06-21 14:00:01,15.08847026,0.0001781,53.2158,291.3918,46.9118,147.42600000000004,-0.00082564,-0.00013407,0.0,0 STARLINK-3448,1 51728U 22016Q   22172.58334491 -.00013407  00000-0 -82564-3 0  9990,2 51728  53.2158 291.3918 0001781  46.9118 147.4260 15.08847026  1307,6917.859,95.437,540.956,538.492,0.0
51728.0,STARLINK-3448,PAYLOAD,2022-06-21 22:00:00,15.08854948,0.0001727,53.2156,289.8951,43.4069,162.5266,-0.0028773,-0.00045808,0.0,0 STARLINK-3448,1 51728U 22016Q   22172.91667824 -.00045808  00000-0 -28773-2 0  9997,2 51728  53.2156 289.8951 0001727  43.4069 162.5266 15.08854948  1306,6917.835,95.437,540.894,538.505,0.0
51728.0,STARLINK-3448,PAYLOAD,2022-06-22 00:00:02,15.08847204,0.000166,53.2157,289.5205,44.2895,254.6088,-0.0025899,-0.00041279,0.0,0 STARLINK-3448,1 51728U 22016Q   22173.00002315 -.00041279  00000-0 -25899-2 0  9990,2 51728  53.2157 289.5205 0001660  44.2895 254.6088 15.08847204 19882,6917.858,95.437,540.872,538.575,0.0
51728.0,STARLINK-3448,PAYLOAD,2022-06-22 14:00:01,15.08839147,0.0001702,53.2158,286.9025,44.7378,184.3736,-0.00032092,-5.392e-05,0.0,0 STARLINK-3448,1 51728U 22016Q   22173.58334491 -.00005392  00000-0 -32092-3 0  9996,2 51728  53.2158 286.9025 0001702  44.7378 184.3736 15.08839147  1306,6917.8830000000025,95.438,540.925,538.571,0.0
51728.0,STARLINK-3448,PAYLOAD,2022-06-22 16:00:00,15.08832712,0.0001747,53.2159,286.5287,44.1114,277.9023,0.0011804,0.00018544,0.0,0 STARLINK-3448,1 51728U 22016Q   22173.66667824  .00018544  00000-0  11804-2 0  9992,2 51728  53.2159 286.5287 0001747  44.1114 277.9023 15.08832712 19986,6917.903,95.438,540.976,538.559,0.0
